{
  "type": "FeatureCollection",
  "features": [
    {
      "type": "Feature",
      "properties": {
        "norad_id": 63772,
        "name": "BIOMASS",
        "group": "resource",
        "lat": -57.13076938217325,
        "lon": -21.346922757065446,
        "alt_km": 676.7891406677463,
        "timestamp": "2025-12-12T07:43:20.161600+00:00",
        "meta_object_name": "BIOMASS",
        "meta_object_id": "2025-090A",
        "meta_epoch": "2025-12-11T22:27:33.952896",
        "meta_mean_motion": 14.6754459,
        "meta_eccentricity": 0.00011832,
        "meta_inclination": 98.0702,
        "meta_ra_of_asc_node": 170.9572,
        "meta_arg_of_pericenter": 77.4382,
        "meta_mean_anomaly": 282.6954,
        "meta_ephemeris_type": 0,
        "meta_classification_type": "U",
        "meta_norad_cat_id": 63772,
        "meta_element_set_no": 999,
        "meta_rev_at_epoch": 3322,
        "meta_bstar": 0.00037132342,
        "meta_mean_motion_dot": 2.058e-05,
        "meta_mean_motion_ddot": 0,
        "tle_line1": "1 63772U 25090A   25345.93580964  .00002058  00000+0  37132-3 0  9997",
        "tle_line2": "2 63772  98.0702 170.9572 0001183  77.4382 282.6954 14.67544590 33229"
      },
      "geometry": {
        "type": "Point",
        "coordinates": [
          -21.346922757065446,
          -57.13076938217325
        ]
      }
    },
    {
      "type": "Feature",
      "properties": {
        "norad_id": 64694,
        "name": "GOSAT-GW (IBUKI GW)",
        "group": "resource",
        "lat": 81.5555149171247,
        "lon": -150.40330318613314,
        "alt_km": 660.3190526400922,
        "timestamp": "2025-12-12T07:43:20.161610+00:00",
        "meta_object_name": "GOSAT-GW (IBUKI GW)",
        "meta_object_id": "2025-141A",
        "meta_epoch": "2025-12-11T23:08:37.546080",
        "meta_mean_motion": 14.6756822,
        "meta_eccentricity": 0.00015214,
        "meta_inclination": 98.0424,
        "meta_ra_of_asc_node": 281.4912,
        "meta_arg_of_pericenter": 83.0567,
        "meta_mean_anomaly": 277.0811,
        "meta_ephemeris_type": 0,
        "meta_classification_type": "U",
        "meta_norad_cat_id": 64694,
        "meta_element_set_no": 999,
        "meta_rev_at_epoch": 2438,
        "meta_bstar": 0.00021554209,
        "meta_mean_motion_dot": 1.175e-05,
        "meta_mean_motion_ddot": 0,
        "tle_line1": "1 64694U 25141A   25345.96432345  .00001175  00000+0  21554-3 0  9990",
        "tle_line2": "2 64694  98.0424 281.4912 0001521  83.0567 277.0811 14.67568220 24387"
      },
      "geometry": {
        "type": "Point",
        "coordinates": [
          -150.40330318613314,
          81.5555149171247
        ]
      }
    },
    {
      "type": "Feature",
      "properties": {
        "norad_id": 64876,
        "name": "IONOSFERA-M 3",
        "group": "resource",
        "lat": 20.460211897803564,
        "lon": 131.4279943356055,
        "alt_km": 820.6679334802429,
        "timestamp": "2025-12-12T07:43:20.161620+00:00",
        "meta_object_name": "IONOSFERA-M 3",
        "meta_object_id": "2025-155A",
        "meta_epoch": "2025-12-12T00:13:06.468960",
        "meta_mean_motion": 14.21440769,
        "meta_eccentricity": 0.00022405,
        "meta_inclination": 98.5781,
        "meta_ra_of_asc_node": 307.8959,
        "meta_arg_of_pericenter": 61.1109,
        "meta_mean_anomaly": 299.0293,
        "meta_ephemeris_type": 0,
        "meta_classification_type": "U",
        "meta_norad_cat_id": 64876,
        "meta_element_set_no": 999,
        "meta_rev_at_epoch": 1981,
        "meta_bstar": 9.2461363e-05,
        "meta_mean_motion_dot": 1.59e-06,
        "meta_mean_motion_ddot": 0,
        "tle_line1": "1 64876U 25155A   25346.00910265  .00000159  00000+0  92461-4 0  9992",
        "tle_line2": "2 64876  98.5781 307.8959 0002240  61.1109 299.0293 14.21440769 19819"
      },
      "geometry": {
        "type": "Point",
        "coordinates": [
          131.4279943356055,
          20.460211897803564
        ]
      }
    },
    {
      "type": "Feature",
      "properties": {
        "norad_id": 64877,
        "name": "IONOSFERA-M 4",
        "group": "resource",
        "lat": -20.075042655959493,
        "lon": -48.7186951766763,
        "alt_km": 825.4771323350105,
        "timestamp": "2025-12-12T07:43:20.161630+00:00",
        "meta_object_name": "IONOSFERA-M 4",
        "meta_object_id": "2025-155B",
        "meta_epoch": "2025-12-11T23:22:14.445984",
        "meta_mean_motion": 14.21441843,
        "meta_eccentricity": 0.00015971,
        "meta_inclination": 98.578,
        "meta_ra_of_asc_node": 307.7811,
        "meta_arg_of_pericenter": 64.2108,
        "meta_mean_anomaly": 295.9234,
        "meta_ephemeris_type": 0,
        "meta_classification_type": "U",
        "meta_norad_cat_id": 64877,
        "meta_element_set_no": 999,
        "meta_rev_at_epoch": 1980,
        "meta_bstar": 9.0107794e-05,
        "meta_mean_motion_dot": 1.54e-06,
        "meta_mean_motion_ddot": 0,
        "tle_line1": "1 64877U 25155B   25345.97377831  .00000154  00000+0  90108-4 0  9995",
        "tle_line2": "2 64877  98.5780 307.7811 0001597  64.2108 295.9234 14.21441843 19805"
      },
      "geometry": {
        "type": "Point",
        "coordinates": [
          -48.7186951766763,
          -20.075042655959493
        ]
      }
    },
    {
      "type": "Feature",
      "properties": {
        "norad_id": 64899,
        "name": "MICROCARB",
        "group": "resource",
        "lat": 57.21014896350357,
        "lon": 49.05996680571625,
        "alt_km": 648.5297781131203,
        "timestamp": "2025-12-12T07:43:20.161641+00:00",
        "meta_object_name": "MICROCARB",
        "meta_object_id": "2025-156A",
        "meta_epoch": "2025-12-11T15:08:43.056960",
        "meta_mean_motion": 14.72054339,
        "meta_eccentricity": 0.001708,
        "meta_inclination": 98.0027,
        "meta_ra_of_asc_node": 60.9944,
        "meta_arg_of_pericenter": 148.1137,
        "meta_mean_anomaly": 212.1108,
        "meta_ephemeris_type": 0,
        "meta_classification_type": "U",
        "meta_norad_cat_id": 64899,
        "meta_element_set_no": 999,
        "meta_rev_at_epoch": 2037,
        "meta_bstar": 0.0001938356,
        "meta_mean_motion_dot": 1.171e-05,
        "meta_mean_motion_ddot": 0,
        "tle_line1": "1 64899U 25156A   25345.63105390  .00001171  00000+0  19384-3 0  9998",
        "tle_line2": "2 64899  98.0027  60.9944 0017080 148.1137 212.1108 14.72054339 20372"
      },
      "geometry": {
        "type": "Point",
        "coordinates": [
          49.05996680571625,
          57.21014896350357
        ]
      }
    },
    {
      "type": "Feature",
      "properties": {
        "norad_id": 64900,
        "name": "CO3D 3",
        "group": "resource",
        "lat": 27.260378760540444,
        "lon": 58.837318891022115,
        "alt_km": 503.8004948784928,
        "timestamp": "2025-12-12T07:43:20.161651+00:00",
        "meta_object_name": "CO3D 3",
        "meta_object_id": "2025-156B",
        "meta_epoch": "2025-12-11T23:42:10.838016",
        "meta_mean_motion": 15.2021493,
        "meta_eccentricity": 0.000132,
        "meta_inclination": 97.4334,
        "meta_ra_of_asc_node": 62.3654,
        "meta_arg_of_pericenter": 97.0899,
        "meta_mean_anomaly": 263.0486,
        "meta_ephemeris_type": 0,
        "meta_classification_type": "U",
        "meta_norad_cat_id": 64900,
        "meta_element_set_no": 999,
        "meta_rev_at_epoch": 2109,
        "meta_bstar": 0.0011143188,
        "meta_mean_motion_dot": 0.00024143,
        "meta_mean_motion_ddot": 0,
        "tle_line1": "1 64900U 25156B   25345.98762544  .00024143  00000+0  11143-2 0  9997",
        "tle_line2": "2 64900  97.4334  62.3654 0001320  97.0899 263.0486 15.20214930 21093"
      },
      "geometry": {
        "type": "Point",
        "coordinates": [
          58.837318891022115,
          27.260378760540444
        ]
      }
    },
    {
      "type": "Feature",
      "properties": {
        "norad_id": 64901,
        "name": "CO3D 4",
        "group": "resource",
        "lat": 26.343611241632555,
        "lon": 58.98757060562704,
        "alt_km": 505.18822762909804,
        "timestamp": "2025-12-12T07:43:20.161661+00:00",
        "meta_object_name": "CO3D 4",
        "meta_object_id": "2025-156C",
        "meta_epoch": "2025-12-09T21:09:17.831232",
        "meta_mean_motion": 15.20201124,
        "meta_eccentricity": 0.0001172,
        "meta_inclination": 97.4339,
        "meta_ra_of_asc_node": 60.2895,
        "meta_arg_of_pericenter": 212.2858,
        "meta_mean_anomaly": 147.8306,
        "meta_ephemeris_type": 0,
        "meta_classification_type": "U",
        "meta_norad_cat_id": 64901,
        "meta_element_set_no": 999,
        "meta_rev_at_epoch": 2077,
        "meta_bstar": -2.5806744e-05,
        "meta_mean_motion_dot": -6.26e-06,
        "meta_mean_motion_ddot": 0,
        "tle_line1": "1 64901U 25156C   25343.88145638 -.00000626  00000+0 -25807-4 0  9990",
        "tle_line2": "2 64901  97.4339  60.2895 0001172 212.2858 147.8306 15.20201124 20779"
      },
      "geometry": {
        "type": "Point",
        "coordinates": [
          58.98757060562704,
          26.343611241632555
        ]
      }
    }
  ]
}